[{"OBJECT_NAME":"LEMUR-2-ZACHARY","OBJECT_ID":"2017-042W","EPOCH":"2026-03-09T14:05:48.863904","MEAN_MOTION":15.42065256,"ECCENTRICITY":0.0003644,"INCLINATION":97.366,"RA_OF_ASC_NODE":258.6799,"ARG_OF_PERICENTER":18.2328,"MEAN_ANOMALY":341.9049,"EPHEMERIS_TYPE":0,"CLASSIFICATION_TYPE":"U","NORAD_CAT_ID":42845,"ELEMENT_SET_NO":999,"REV_AT_EPOCH":47381,"BSTAR":0.00087895,"MEAN_MOTION_DOT":0.000376,"MEAN_MOTION_DDOT":0},{"OBJECT_NAME":"STARLINK-31079","OBJECT_ID":"2023-200K","EPOCH":"2026-03-09T22:00:01.999584","MEAN_MOTION":15.38917624,"ECCENTRICITY":0.00268616,"INCLINATION":42.9849,"RA_OF_ASC_NODE":139.2305,"ARG_OF_PERICENTER":29.9846,"MEAN_ANOMALY":113.2659,"EPHEMERIS_TYPE":0,"CLASSIFICATION_TYPE":"U","NORAD_CAT_ID":58598,"ELEMENT_SET_NO":999,"REV_AT_EPOCH":581,"BSTAR":0.0026849356,"MEAN_MOTION_DOT":0.00108251,"MEAN_MOTION_DDOT":0}]
